*******************************************************************************
Ephemeris / WWW_USER Mon Mar 24 11:09:01 2025 Pasadena, USA      / Horizons    
*******************************************************************************
Target body name: (2018 VS8)                      {source: JPL#8}
Center body name: Earth (399)                     {source: DE441}
Center-site name: Mauna Kea
*******************************************************************************
Start time      : A.D. 2018-Aug-28 04:50:00.0000 UT      
Stop  time      : A.D. 2018-Aug-28 15:56:00.0000 UT      
Step-size       : 1 minutes
*******************************************************************************
Target pole/equ : undefined
Target radii    : undefined                                                    
Center geodetic : 204.5278, 19.8260847, 4.21024   {E-lon(deg),Lat(deg),Alt(km)}
Center cylindric: 204.5278, 6006.35451, 2151.0229 {E-lon(deg),Dxy(km),Dz(km)}
Center pole/equ : ITRF93                          {East-longitude positive}
Center radii    : 6378.137, 6378.137, 6356.752 km {Equator_a, b, pole_c}       
Target primary  : Sun
Vis. interferer : MOON (R_eq= 1737.400) km        {source: DE441}
Rel. light bend : Sun                             {source: DE441}
Rel. lght bnd GM: 1.3271E+11 km^3/s^2                                          
Small-body perts: Yes                             {source: SB441-N16}
Atmos refraction: NO (AIRLESS)
RA format       : HMS
Time format     : CAL 
Calendar mode   : Mixed Julian/Gregorian
RTS-only print  : NO       
EOP file        : eop.250321.p250617                                           
EOP coverage    : DATA-BASED 1962-JAN-20 TO 2025-MAR-21. PREDICTS-> 2025-JUN-16
Units conversion: 1 au= 149597870.700 km, c= 299792.458 km/s, 1 day= 86400.0 s 
Table cut-offs 1: Elevation (-90.0deg=NO ),Airmass (>38.000=NO), Daylight (YES)
Table cut-offs 2: Solar elongation (  0.0,180.0=NO ),Local Hour Angle( 0.0=NO )
Table cut-offs 3: RA/DEC angular rate (     0.0=NO )                           
*******************************************************************************
Initial IAU76/J2000 heliocentric ecliptic osculating elements (au, days, deg.):
  EPOCH=  2458433.5 ! 2018-Nov-11.00 (TDB)         Residual RMS= .33953        
   EC= .5263784885368822   QR= .9373233613851428   TP= 2458465.1575556668      
   OM= 53.89076972236643   W=  33.71683445616237   IN= 3.430463171034721       
  Equivalent ICRF heliocentric cartesian coordinates (au, au/d):
   X= 6.888560011548344E-01  Y= 6.928655939663307E-01  Z= 2.929974091538562E-01
  VX=-1.813811938800288E-02 VY= 8.693003909227039E-03 VZ= 5.111678677431928E-03
Asteroid physical parameters (km, seconds, rotational period in hours):        
   GM= n.a.                RAD= n.a.               ROTPER= n.a.                
   H= 27.2                 G= .150                 B-V= n.a.                   
                           ALBEDO= n.a.            STYP= n.a.                  
*******************************************************************************
 Date__(UT)__HR:MN     R.A._________(ICRF)_________DEC
******************************************************
$$SOE
 2018-Aug-28 04:50 C   01 08 14.484312 -00 56 18.65232
 2018-Aug-28 04:51 C   01 08 14.522727 -00 56 18.63114
 2018-Aug-28 04:52 C   01 08 14.561129 -00 56 18.60998
 2018-Aug-28 04:53 C   01 08 14.599516 -00 56 18.58881
 2018-Aug-28 04:54 C   01 08 14.637888 -00 56 18.56766
 2018-Aug-28 04:55 C   01 08 14.676246 -00 56 18.54651
 2018-Aug-28 04:56 C   01 08 14.714590 -00 56 18.52537
 2018-Aug-28 04:57 C   01 08 14.752918 -00 56 18.50423
 2018-Aug-28 04:58 C   01 08 14.791233 -00 56 18.48310
 2018-Aug-28 04:59 C   01 08 14.829532 -00 56 18.46198
 2018-Aug-28 05:00 C   01 08 14.867817 -00 56 18.44086
 2018-Aug-28 05:01 C   01 08 14.906087 -00 56 18.41975
 2018-Aug-28 05:02 C   01 08 14.944343 -00 56 18.39865
 2018-Aug-28 05:03 C   01 08 14.982583 -00 56 18.37756
 2018-Aug-28 05:04 N   01 08 15.020809 -00 56 18.35647
 2018-Aug-28 05:05 N   01 08 15.059020 -00 56 18.33538
 2018-Aug-28 05:06 N   01 08 15.097216 -00 56 18.31431
 2018-Aug-28 05:07 N   01 08 15.135397 -00 56 18.29324
 2018-Aug-28 05:08 N   01 08 15.173563 -00 56 18.27218
 2018-Aug-28 05:09 N   01 08 15.211714 -00 56 18.25112
 2018-Aug-28 05:10 N   01 08 15.249849 -00 56 18.23007
 2018-Aug-28 05:11 N   01 08 15.287970 -00 56 18.20903
 2018-Aug-28 05:12 N   01 08 15.326076 -00 56 18.18799
 2018-Aug-28 05:13 N   01 08 15.364166 -00 56 18.16696
 2018-Aug-28 05:14 N   01 08 15.402241 -00 56 18.14594
 2018-Aug-28 05:15 N   01 08 15.440301 -00 56 18.12492
 2018-Aug-28 05:16 N   01 08 15.478346 -00 56 18.10391
 2018-Aug-28 05:17 N   01 08 15.516375 -00 56 18.08290
 2018-Aug-28 05:18 N   01 08 15.554389 -00 56 18.06190
 2018-Aug-28 05:19 N   01 08 15.592388 -00 56 18.04091
 2018-Aug-28 05:20 N   01 08 15.630371 -00 56 18.01993
 2018-Aug-28 05:21 N   01 08 15.668339 -00 56 17.99895
 2018-Aug-28 05:22 N   01 08 15.706291 -00 56 17.97797
 2018-Aug-28 05:23 N   01 08 15.744228 -00 56 17.95701
 2018-Aug-28 05:24 N   01 08 15.782149 -00 56 17.93605
 2018-Aug-28 05:25 N   01 08 15.820054 -00 56 17.91509
 2018-Aug-28 05:26 N   01 08 15.857944 -00 56 17.89415
 2018-Aug-28 05:27 N   01 08 15.895819 -00 56 17.87321
 2018-Aug-28 05:28 N   01 08 15.933677 -00 56 17.85227
 2018-Aug-28 05:29 N   01 08 15.971520 -00 56 17.83134
 2018-Aug-28 05:30 A   01 08 16.009347 -00 56 17.81042
 2018-Aug-28 05:31 A   01 08 16.047159 -00 56 17.78950
 2018-Aug-28 05:32 A   01 08 16.084954 -00 56 17.76859
 2018-Aug-28 05:33 A   01 08 16.122734 -00 56 17.74769
 2018-Aug-28 05:34 A   01 08 16.160498 -00 56 17.72679
 2018-Aug-28 05:35 A   01 08 16.198246 -00 56 17.70590
 2018-Aug-28 05:36 A   01 08 16.235978 -00 56 17.68502
 2018-Aug-28 05:37 A   01 08 16.273694 -00 56 17.66414
 2018-Aug-28 05:38 A   01 08 16.311394 -00 56 17.64326
 2018-Aug-28 05:39 A   01 08 16.349078 -00 56 17.62240
 2018-Aug-28 05:40 A   01 08 16.386746 -00 56 17.60154
 2018-Aug-28 05:41 A   01 08 16.424399 -00 56 17.58068
 2018-Aug-28 05:42 Am  01 08 16.462034 -00 56 17.55983
 2018-Aug-28 05:43 Am  01 08 16.499654 -00 56 17.53899
 2018-Aug-28 05:44 Am  01 08 16.537258 -00 56 17.51815
 2018-Aug-28 05:45 Am  01 08 16.574845 -00 56 17.49732
 2018-Aug-28 05:46 Am  01 08 16.612417 -00 56 17.47650
 2018-Aug-28 05:47 Am  01 08 16.649972 -00 56 17.45568
 2018-Aug-28 05:48 Am  01 08 16.687511 -00 56 17.43487
 2018-Aug-28 05:49 Am  01 08 16.725033 -00 56 17.41406
 2018-Aug-28 05:50 Am  01 08 16.762540 -00 56 17.39326
 2018-Aug-28 05:51 Am  01 08 16.800030 -00 56 17.37246
 2018-Aug-28 05:52 Am  01 08 16.837503 -00 56 17.35168
 2018-Aug-28 05:53 Am  01 08 16.874960 -00 56 17.33089
 2018-Aug-28 05:54 Am  01 08 16.912401 -00 56 17.31012
 2018-Aug-28 05:55 Am  01 08 16.949826 -00 56 17.28934
 2018-Aug-28 05:56 Am  01 08 16.987234 -00 56 17.26858
 2018-Aug-28 05:57  m  01 08 17.024625 -00 56 17.24782
 2018-Aug-28 05:58  m  01 08 17.062000 -00 56 17.22707
 2018-Aug-28 05:59  m  01 08 17.099359 -00 56 17.20632
 2018-Aug-28 06:00  m  01 08 17.136701 -00 56 17.18558
 2018-Aug-28 06:01  m  01 08 17.174026 -00 56 17.16484
 2018-Aug-28 06:02  m  01 08 17.211335 -00 56 17.14411
 2018-Aug-28 06:03  m  01 08 17.248627 -00 56 17.12338
 2018-Aug-28 06:04  m  01 08 17.285903 -00 56 17.10266
 2018-Aug-28 06:05  m  01 08 17.323162 -00 56 17.08195
 2018-Aug-28 06:06  m  01 08 17.360404 -00 56 17.06124
 2018-Aug-28 06:07  m  01 08 17.397630 -00 56 17.04054
 2018-Aug-28 06:08  m  01 08 17.434839 -00 56 17.01984
 2018-Aug-28 06:09  m  01 08 17.472031 -00 56 16.99915
 2018-Aug-28 06:10  m  01 08 17.509207 -00 56 16.97847
 2018-Aug-28 06:11  m  01 08 17.546366 -00 56 16.95779
 2018-Aug-28 06:12  m  01 08 17.583508 -00 56 16.93712
 2018-Aug-28 06:13  m  01 08 17.620633 -00 56 16.91645
 2018-Aug-28 06:14  m  01 08 17.657741 -00 56 16.89578
 2018-Aug-28 06:15  m  01 08 17.694833 -00 56 16.87513
 2018-Aug-28 06:16  m  01 08 17.731908 -00 56 16.85448
 2018-Aug-28 06:17  m  01 08 17.768966 -00 56 16.83383
 2018-Aug-28 06:18  m  01 08 17.806007 -00 56 16.81319
 2018-Aug-28 06:19  m  01 08 17.843031 -00 56 16.79255
 2018-Aug-28 06:20  m  01 08 17.880038 -00 56 16.77193
 2018-Aug-28 06:21  m  01 08 17.917029 -00 56 16.75130
 2018-Aug-28 06:22  m  01 08 17.954002 -00 56 16.73068
 2018-Aug-28 06:23  m  01 08 17.990959 -00 56 16.71007
 2018-Aug-28 06:24  m  01 08 18.027898 -00 56 16.68946
 2018-Aug-28 06:25  m  01 08 18.064821 -00 56 16.66886
 2018-Aug-28 06:26  m  01 08 18.101726 -00 56 16.64826
 2018-Aug-28 06:27  m  01 08 18.138615 -00 56 16.62767
 2018-Aug-28 06:28  m  01 08 18.175486 -00 56 16.60708
 2018-Aug-28 06:29  m  01 08 18.212341 -00 56 16.58650
 2018-Aug-28 06:30  m  01 08 18.249178 -00 56 16.56593
 2018-Aug-28 06:31  m  01 08 18.285999 -00 56 16.54536
 2018-Aug-28 06:32  m  01 08 18.322802 -00 56 16.52479
 2018-Aug-28 06:33  m  01 08 18.359588 -00 56 16.50423
 2018-Aug-28 06:34  m  01 08 18.396357 -00 56 16.48368
 2018-Aug-28 06:35  m  01 08 18.433109 -00 56 16.46313
 2018-Aug-28 06:36  m  01 08 18.469844 -00 56 16.44259
 2018-Aug-28 06:37  m  01 08 18.506562 -00 56 16.42205
 2018-Aug-28 06:38  m  01 08 18.543263 -00 56 16.40151
 2018-Aug-28 06:39  m  01 08 18.579947 -00 56 16.38099
 2018-Aug-28 06:40  m  01 08 18.616613 -00 56 16.36046
 2018-Aug-28 06:41  m  01 08 18.653262 -00 56 16.33994
 2018-Aug-28 06:42  m  01 08 18.689894 -00 56 16.31943
 2018-Aug-28 06:43  m  01 08 18.726509 -00 56 16.29892
 2018-Aug-28 06:44  m  01 08 18.763107 -00 56 16.27842
 2018-Aug-28 06:45  m  01 08 18.799688 -00 56 16.25792
 2018-Aug-28 06:46  m  01 08 18.836251 -00 56 16.23743
 2018-Aug-28 06:47  m  01 08 18.872797 -00 56 16.21694
 2018-Aug-28 06:48  m  01 08 18.909326 -00 56 16.19646
 2018-Aug-28 06:49  m  01 08 18.945838 -00 56 16.17598
 2018-Aug-28 06:50  m  01 08 18.982332 -00 56 16.15551
 2018-Aug-28 06:51  m  01 08 19.018810 -00 56 16.13504
 2018-Aug-28 06:52  m  01 08 19.055270 -00 56 16.11458
